UTMN 2 (RS27S)          
1 57203U 23091AP  26115.85211062  .00014406  00000+0  48658-3 0  9990
2 57203  97.5121 182.3927 0006713 259.8487 100.1997 15.30754318156530
SITRO-AIS 12 (SMIRENNIY)
1 57204U 23091AQ  26115.80661744  .00021093  00000+0  59402-3 0  9991
2 57204  97.5121 185.3754 0005520 244.1507 115.9167 15.36465583156720
SITRO-AIS 11 (SHEFFER)  
1 57208U 23091AU  26115.83370998  .00020085  00000+0  55890-3 0  9993
2 57208  97.5119 185.6187 0005498 243.5542 116.5138 15.36849029156748
H2SAT (HEINRICH HERTZ)  
1 57213U 23093A   26115.21071412 -.00000012  00000+0  00000+0 0  9990
2 57213   0.0169 205.0936 0000876 278.1415 166.5420  1.00272205 10385
KUZGTU 1 (RS47S)        
1 57217U 23091AV  26115.81758647  .00012611  00000+0  45446-3 0  9994
2 57217  97.5101 179.8046 0009506 281.1409  78.8761 15.28653435156378
QIANKUN-1               
1 57422U 23103B   26115.76150360  .00121765  82792-5  13687-3 0  9995
2 57422  96.1689 164.2062 0039007 119.9800 240.5366 16.07698984158872
FENGYUN 3F              
1 57490U 23111A   26115.82972750  .00000030  00000+0  34654-4 0  9996
2 57490  98.6861 186.8082 0000892 113.0456 247.0815 14.19929478141431
METEOR 2-1 DEB          
1 57492U 75064F   26114.53068973  .00004737  00000+0  18687-2 0  9996
2 57492  81.2748  52.9546 0003864 243.2868 116.7918 14.28971715395324
HJ-2F                   
1 57519U 23116A   26115.85134958  .00007674  00000+0  34311-3 0  9996
2 57519  97.3866 122.0100 0007496 214.1706 145.9049 15.21567857150792
XRISM                   
1 57800U 23137A   26115.78270183  .00005399  00000+0  30111-3 0  9991
2 57800  31.0029 338.9380 0007528 155.2995 204.8005 15.11999597144924
METEOR-M2 4             
1 59051U 24039A   26115.84887733  .00000011  00000+0  24453-4 0  9994
2 59051  98.6975  75.8166 0006491 330.1006  29.9800 14.22423806111825
GRBBETA                 
1 60237U 24128C   26115.78150279  .00004079  00000+0  28477-3 0  9999
2 60237  61.9913  40.0697 0047083 123.6270 236.9328 15.06204708 98371
TRANSPORTER-11 OBJECT A 
1 60468U 24149A   26115.78569337  .00008803  00000+0  28698-3 0  9991
2 60468  97.3735 195.9126 0004519  66.2220 293.9496 15.32036418 94031
WARATAH SEED-1          
1 60469U 24149B   26115.77345316  .00013752  00000+0  41221-3 0  9996
2 60469  97.3692 196.3526 0003085  79.9128 280.2463 15.34603366 94079
PHISAT 2                
1 60470U 24149C   26115.74860245  .00007358  00000+0  25383-3 0  9994
2 60470  97.3762 195.2867 0003170  86.3806 273.7798 15.30269280 93970
LEMUR-2-TOMATOKECHUP    
1 60471U 24149D   26115.77669992  .00011191  00000+0  33257-3 0  9993
2 60471  97.3798 197.7351 0003182  83.8907 276.2699 15.34926755 94129
