[{"OBJECT_NAME":"UTMN 2 (RS27S)","OBJECT_ID":"2023-091AP","EPOCH":"2026-04-25T20:27:02.357568","MEAN_MOTION":15.30754318,"ECCENTRICITY":0.0006713,"INCLINATION":97.5121,"RA_OF_ASC_NODE":182.3927,"ARG_OF_PERICENTER":259.8487,"MEAN_ANOMALY":100.1997,"EPHEMERIS_TYPE":0,"CLASSIFICATION_TYPE":"U","NORAD_CAT_ID":57203,"ELEMENT_SET_NO":999,"REV_AT_EPOCH":15653,"BSTAR":0.00048658,"MEAN_MOTION_DOT":0.00014406,"MEAN_MOTION_DDOT":0},{"OBJECT_NAME":"SITRO-AIS 12 (SMIRENNIY)","OBJECT_ID":"2023-091AQ","EPOCH":"2026-04-25T19:21:31.746816","MEAN_MOTION":15.36465583,"ECCENTRICITY":0.000552,"INCLINATION":97.5121,"RA_OF_ASC_NODE":185.3754,"ARG_OF_PERICENTER":244.1507,"MEAN_ANOMALY":115.9167,"EPHEMERIS_TYPE":0,"CLASSIFICATION_TYPE":"U","NORAD_CAT_ID":57204,"ELEMENT_SET_NO":999,"REV_AT_EPOCH":15672,"BSTAR":0.00059402,"MEAN_MOTION_DOT":0.00021093,"MEAN_MOTION_DDOT":0},{"OBJECT_NAME":"SITRO-AIS 11 (SHEFFER)","OBJECT_ID":"2023-091AU","EPOCH":"2026-04-25T20:00:32.542272","MEAN_MOTION":15.36849029,"ECCENTRICITY":0.0005498,"INCLINATION":97.5119,"RA_OF_ASC_NODE":185.6187,"ARG_OF_PERICENTER":243.5542,"MEAN_ANOMALY":116.5138,"EPHEMERIS_TYPE":0,"CLASSIFICATION_TYPE":"U","NORAD_CAT_ID":57208,"ELEMENT_SET_NO":999,"REV_AT_EPOCH":15674,"BSTAR":0.0005589,"MEAN_MOTION_DOT":0.00020085,"MEAN_MOTION_DDOT":0},{"OBJECT_NAME":"H2SAT (HEINRICH HERTZ)","OBJECT_ID":"2023-093A","EPOCH":"2026-04-25T05:03:25.699968","MEAN_MOTION":1.00272205,"ECCENTRICITY":8.76e-5,"INCLINATION":0.0169,"RA_OF_ASC_NODE":205.0936,"ARG_OF_PERICENTER":278.1415,"MEAN_ANOMALY":166.542,"EPHEMERIS_TYPE":0,"CLASSIFICATION_TYPE":"U","NORAD_CAT_ID":57213,"ELEMENT_SET_NO":999,"REV_AT_EPOCH":1038,"BSTAR":0,"MEAN_MOTION_DOT":-1.2e-7,"MEAN_MOTION_DDOT":0},{"OBJECT_NAME":"KUZGTU 1 (RS47S)","OBJECT_ID":"2023-091AV","EPOCH":"2026-04-25T19:37:19.471008","MEAN_MOTION":15.28653435,"ECCENTRICITY":0.0009506,"INCLINATION":97.5101,"RA_OF_ASC_NODE":179.8046,"ARG_OF_PERICENTER":281.1409,"MEAN_ANOMALY":78.8761,"EPHEMERIS_TYPE":0,"CLASSIFICATION_TYPE":"U","NORAD_CAT_ID":57217,"ELEMENT_SET_NO":999,"REV_AT_EPOCH":15637,"BSTAR":0.00045446,"MEAN_MOTION_DOT":0.00012611,"MEAN_MOTION_DDOT":0},{"OBJECT_NAME":"QIANKUN-1","OBJECT_ID":"2023-103B","EPOCH":"2026-04-25T18:16:33.911040","MEAN_MOTION":16.07698984,"ECCENTRICITY":0.0039007,"INCLINATION":96.1689,"RA_OF_ASC_NODE":164.2062,"ARG_OF_PERICENTER":119.98,"MEAN_ANOMALY":240.5366,"EPHEMERIS_TYPE":0,"CLASSIFICATION_TYPE":"U","NORAD_CAT_ID":57422,"ELEMENT_SET_NO":999,"REV_AT_EPOCH":15887,"BSTAR":0.00013687,"MEAN_MOTION_DOT":0.00121765,"MEAN_MOTION_DDOT":8.2792e-6},{"OBJECT_NAME":"FENGYUN 3F","OBJECT_ID":"2023-111A","EPOCH":"2026-04-25T19:54:48.456000","MEAN_MOTION":14.19929478,"ECCENTRICITY":8.92e-5,"INCLINATION":98.6861,"RA_OF_ASC_NODE":186.8082,"ARG_OF_PERICENTER":113.0456,"MEAN_ANOMALY":247.0815,"EPHEMERIS_TYPE":0,"CLASSIFICATION_TYPE":"U","NORAD_CAT_ID":57490,"ELEMENT_SET_NO":999,"REV_AT_EPOCH":14143,"BSTAR":3.4654e-5,"MEAN_MOTION_DOT":3.0e-7,"MEAN_MOTION_DDOT":0},{"OBJECT_NAME":"METEOR 2-1 DEB","OBJECT_ID":"1975-064F","EPOCH":"2026-04-24T12:44:11.592672","MEAN_MOTION":14.28971715,"ECCENTRICITY":0.00038648,"INCLINATION":81.2748,"RA_OF_ASC_NODE":52.9546,"ARG_OF_PERICENTER":243.2868,"MEAN_ANOMALY":116.7918,"EPHEMERIS_TYPE":0,"CLASSIFICATION_TYPE":"U","NORAD_CAT_ID":57492,"ELEMENT_SET_NO":999,"REV_AT_EPOCH":39532,"BSTAR":0.0018687035,"MEAN_MOTION_DOT":4.737e-5,"MEAN_MOTION_DDOT":0},{"OBJECT_NAME":"HJ-2F","OBJECT_ID":"2023-116A","EPOCH":"2026-04-25T20:25:56.603712","MEAN_MOTION":15.21567857,"ECCENTRICITY":0.0007496,"INCLINATION":97.3866,"RA_OF_ASC_NODE":122.01,"ARG_OF_PERICENTER":214.1706,"MEAN_ANOMALY":145.9049,"EPHEMERIS_TYPE":0,"CLASSIFICATION_TYPE":"U","NORAD_CAT_ID":57519,"ELEMENT_SET_NO":999,"REV_AT_EPOCH":15079,"BSTAR":0.00034311,"MEAN_MOTION_DOT":7.674e-5,"MEAN_MOTION_DDOT":0},{"OBJECT_NAME":"XRISM","OBJECT_ID":"2023-137A","EPOCH":"2026-04-25T18:47:05.438112","MEAN_MOTION":15.11999597,"ECCENTRICITY":0.0007528,"INCLINATION":31.0029,"RA_OF_ASC_NODE":338.938,"ARG_OF_PERICENTER":155.2995,"MEAN_ANOMALY":204.8005,"EPHEMERIS_TYPE":0,"CLASSIFICATION_TYPE":"U","NORAD_CAT_ID":57800,"ELEMENT_SET_NO":999,"REV_AT_EPOCH":14492,"BSTAR":0.00030111,"MEAN_MOTION_DOT":5.399e-5,"MEAN_MOTION_DDOT":0},{"OBJECT_NAME":"METEOR-M2 4","OBJECT_ID":"2024-039A","EPOCH":"2026-04-25T20:22:23.001312","MEAN_MOTION":14.22423806,"ECCENTRICITY":0.0006491,"INCLINATION":98.6975,"RA_OF_ASC_NODE":75.8166,"ARG_OF_PERICENTER":330.1006,"MEAN_ANOMALY":29.98,"EPHEMERIS_TYPE":0,"CLASSIFICATION_TYPE":"U","NORAD_CAT_ID":59051,"ELEMENT_SET_NO":999,"REV_AT_EPOCH":11182,"BSTAR":2.4453e-5,"MEAN_MOTION_DOT":1.1e-7,"MEAN_MOTION_DDOT":0},{"OBJECT_NAME":"GRBBETA","OBJECT_ID":"2024-128C","EPOCH":"2026-04-25T18:45:21.841056","MEAN_MOTION":15.06204708,"ECCENTRICITY":0.0047083,"INCLINATION":61.9913,"RA_OF_ASC_NODE":40.0697,"ARG_OF_PERICENTER":123.627,"MEAN_ANOMALY":236.9328,"EPHEMERIS_TYPE":0,"CLASSIFICATION_TYPE":"U","NORAD_CAT_ID":60237,"ELEMENT_SET_NO":999,"REV_AT_EPOCH":9837,"BSTAR":0.00028477,"MEAN_MOTION_DOT":4.079e-5,"MEAN_MOTION_DDOT":0},{"OBJECT_NAME":"TRANSPORTER-11 OBJECT A","OBJECT_ID":"2024-149A","EPOCH":"2026-04-25T18:51:23.907168","MEAN_MOTION":15.32036418,"ECCENTRICITY":0.0004519,"INCLINATION":97.3735,"RA_OF_ASC_NODE":195.9126,"ARG_OF_PERICENTER":66.222,"MEAN_ANOMALY":293.9496,"EPHEMERIS_TYPE":0,"CLASSIFICATION_TYPE":"U","NORAD_CAT_ID":60468,"ELEMENT_SET_NO":999,"REV_AT_EPOCH":9403,"BSTAR":0.00028698,"MEAN_MOTION_DOT":8.803e-5,"MEAN_MOTION_DDOT":0},{"OBJECT_NAME":"WARATAH SEED-1","OBJECT_ID":"2024-149B","EPOCH":"2026-04-25T18:33:46.353024","MEAN_MOTION":15.34603366,"ECCENTRICITY":0.0003085,"INCLINATION":97.3692,"RA_OF_ASC_NODE":196.3526,"ARG_OF_PERICENTER":79.9128,"MEAN_ANOMALY":280.2463,"EPHEMERIS_TYPE":0,"CLASSIFICATION_TYPE":"U","NORAD_CAT_ID":60469,"ELEMENT_SET_NO":999,"REV_AT_EPOCH":9407,"BSTAR":0.00041221,"MEAN_MOTION_DOT":0.00013752,"MEAN_MOTION_DDOT":0},{"OBJECT_NAME":"PHISAT 2","OBJECT_ID":"2024-149C","EPOCH":"2026-04-25T17:57:59.251680","MEAN_MOTION":15.3026928,"ECCENTRICITY":0.000317,"INCLINATION":97.3762,"RA_OF_ASC_NODE":195.2867,"ARG_OF_PERICENTER":86.3806,"MEAN_ANOMALY":273.7798,"EPHEMERIS_TYPE":0,"CLASSIFICATION_TYPE":"U","NORAD_CAT_ID":60470,"ELEMENT_SET_NO":999,"REV_AT_EPOCH":9397,"BSTAR":0.00025383,"MEAN_MOTION_DOT":7.358e-5,"MEAN_MOTION_DDOT":0},{"OBJECT_NAME":"LEMUR-2-TOMATOKECHUP","OBJECT_ID":"2024-149D","EPOCH":"2026-04-25T18:38:26.873088","MEAN_MOTION":15.34926755,"ECCENTRICITY":0.0003182,"INCLINATION":97.3798,"RA_OF_ASC_NODE":197.7351,"ARG_OF_PERICENTER":83.8907,"MEAN_ANOMALY":276.2699,"EPHEMERIS_TYPE":0,"CLASSIFICATION_TYPE":"U","NORAD_CAT_ID":60471,"ELEMENT_SET_NO":999,"REV_AT_EPOCH":9412,"BSTAR":0.00033257,"MEAN_MOTION_DOT":0.00011191,"MEAN_MOTION_DDOT":0}]
